     2.100          NAVIGATION                              RINEX VERSION / TYPE
fic2rin                                 02/25/2017 00:21:29 PGM / RUN BY / DATE
                                                            END OF HEADER
29 17  2 24 20  0  0.0  .624514184892D-03 -.261479726760D-11  .000000000000D+00
     .820000000000D+02  .201250000000D+02  .437268213976D-08  .139278323522D+01
     .974163413048D-06  .667041516863D-03  .160373747349D-05  .515366806984D+04
     .504000000000D+06  .149011611938D-07 -.176078791595D+01  .167638063431D-07
     .979876068800D+00  .357812500000D+03 -.122400869368D+00 -.829891711178D-08
     .535736601294D-11  .100000000000D+01  .193700000000D+04  .000000000000D+00
     .240000000000D+01  .000000000000D+00 -.102445483208D-07  .820000000000D+02
     .496806000000D+06  .400000000000D+01
30 17  2 24 20  0  0.0  .160563271493D-03 -.113686837722D-12  .000000000000D+00
     .100000000000D+02 -.318750000000D+02  .489306095849D-08  .274548943467D+01
    -.157952308655D-05  .245435233228D-02  .100992619991D-04  .515371107483D+04
     .504000000000D+06 -.651925802231D-07  .243378792259D+01 -.167638063431D-07
     .948993078171D+00  .180562500000D+03  .306326271070D+01 -.812176687562D-08
    -.581095633537D-09  .100000000000D+01  .193700000000D+04  .000000000000D+00
     .240000000000D+01  .000000000000D+00  .372529029846D-08  .100000000000D+02
     .496806000000D+06  .400000000000D+01
31 17  2 24 20  0  0.0  .217068474740D-03 -.227373675443D-11  .000000000000D+00
     .360000000000D+02 -.228125000000D+02  .444232789793D-08  .250987921461D+01
    -.100210309029D-05  .853732577525D-02  .102389603853D-04  .515365499687D+04
     .504000000000D+06 -.577419996262D-07  .240407976490D+01  .203028321266D-06
     .967989221574D+00  .188125000000D+03 -.279804116496D+00 -.780568228086D-08
    -.605382359462D-09  .100000000000D+01  .193700000000D+04  .000000000000D+00
     .240000000000D+01  .000000000000D+00 -.135041773319D-07  .360000000000D+02
     .496806000000D+06  .400000000000D+01
32 17  2 24 20  0  0.0 -.331767369062D-03 -.135287336889D-10  .000000000000D+00
     .190000000000D+02  .123750000000D+02  .516557230968D-08  .923065320233D-01
     .650063157082D-06  .798827153631D-03  .444240868092D-05  .515368917656D+04
     .504000000000D+06 -.428408384323D-07  .131725631358D+01  .372529029846D-08
     .958027551133D+00  .293250000000D+03 -.279477174494D+01 -.838677791439D-08
     .150006248362D-09  .100000000000D+01  .193700000000D+04  .000000000000D+00
     .240000000000D+01  .000000000000D+00  .465661287308D-09  .190000000000D+02
     .496806000000D+06  .400000000000D+01
 4 17  2 24 20  0  0.0 -.259708613157D-03  .341060513165D-12  .000000000000D+00
     .120000000000D+02  .104187500000D+03  .521664586567D-08  .339743689883D+00
     .565499067307D-05  .891755218618D-02  .961683690548D-05  .515373323250D+04
     .504000000000D+06 -.540167093277D-07 -.283930849817D+01  .145286321640D-06
     .982766424806D+00  .204281250000D+03  .874589263616D+00 -.788104256277D-08
     .728601777760D-10  .100000000000D+01  .193700000000D+04  .000000000000D+00
     .240000000000D+01  .630000000000D+02 -.195577740669D-07  .120000000000D+02
     .497526000000D+06  .400000000000D+01
 3 17  2 24 19 59 44.0 -.107530970126D-03  .000000000000D+00  .000000000000D+00
     .100000000000D+01  .487500000000D+01  .429732185785D-08  .244535154246D+01
     .335276126862D-06  .477932160720D-03  .117272138596D-04  .515379710197D+04
     .503984000000D+06  .316649675369D-07  .277572677810D+00  .130385160446D-07
     .960163865033D+00  .149531250000D+03  .373411170988D+00 -.783782647693D-08
     .597167731576D-09  .100000000000D+01  .193700000000D+04  .000000000000D+00
     .240000000000D+01  .000000000000D+00  .186264514923D-08  .100000000000D+01
     .503376000000D+06  .400000000000D+01
10 17  2 24 19 59 44.0 -.101957935840D-03  .454747350886D-11  .000000000000D+00
     .800000000000D+01  .125625000000D+02  .434660962517D-08  .123553375541D+01
     .629574060440D-06  .227303814609D-02  .115372240543D-04  .515368030930D+04
     .503984000000D+06 -.782310962677D-07  .273796260119D+00  .521540641785D-07
     .960350483641D+00  .156625000000D+03 -.287002213555D+01 -.786675625340D-08
     .501449458811D-09  .100000000000D+01  .193700000000D+04  .000000000000D+00
     .240000000000D+01  .000000000000D+00  .232830643654D-08  .800000000000D+01
     .503406000000D+06  .400000000000D+01
 3 17  2 24 21 59 44.0 -.107530970126D-03  .000000000000D+00  .000000000000D+00
     .200000000000D+01  .102500000000D+02  .422803325741D-08 -.278727440681D+01
     .553205609322D-06  .477446708828D-03  .118389725685D-04  .515379792786D+04
     .511184000000D+06 -.558793544769D-08  .277516343761D+00  .838190317154D-07
     .960168189419D+00  .150750000000D+03  .372955537838D+00 -.781782564382D-08
     .573952478853D-09  .100000000000D+01  .193700000000D+04  .000000000000D+00
     .240000000000D+01  .000000000000D+00  .186264514923D-08  .200000000000D+01
     .504006000000D+06  .400000000000D+01
10 17  2 24 21 59 44.0 -.101925339550D-03  .454747350886D-11  .000000000000D+00
     .550000000000D+02  .493750000000D+01  .427839249793D-08  .228521251125D+01
     .311061739922D-06  .227270869073D-02  .116694718599D-04  .515368251801D+04
     .511184000000D+06 -.931322574615D-07  .273739621783D+00 -.186264514923D-07
     .960354034143D+00  .152937500000D+03 -.286952601468D+01 -.784782689349D-08
     .495020619596D-09  .100000000000D+01  .193700000000D+04  .000000000000D+00
     .240000000000D+01  .000000000000D+00  .232830643654D-08  .550000000000D+02
     .504006000000D+06  .400000000000D+01
 1 17  2 24 22  0  0.0  .500027090311D-04  .909494701773D-12  .000000000000D+00
     .730000000000D+02 -.125593750000D+03  .415945897245D-08 -.188145926066D+01
    -.647641718388D-05  .625127053354D-02  .826828181744D-05  .515369822502D+04
     .511200000000D+06 -.931322574615D-08 -.764260370832D+00 -.782310962677D-07
     .966685091549D+00  .222437500000D+03  .539910452135D+00 -.793925927344D-08
    -.322156276245D-09  .100000000000D+01  .193700000000D+04  .000000000000D+00
     .240000000000D+01  .000000000000D+00  .512227416039D-08  .730000000000D+02
     .504006000000D+06  .400000000000D+01
 2 17  2 24 22  0  0.0  .469771679491D-03 -.693489710102D-11  .000000000000D+00
     .360000000000D+02 -.123625000000D+03  .481627204563D-08 -.149024678169D+01
    -.624172389507D-05  .166855689604D-01  .632181763649D-05  .515374162102D+04
     .511200000000D+06  .458210706711D-06 -.815665385474D+00  .189989805222D-06
     .945533968874D+00  .246843750000D+03 -.201609279500D+01 -.826605860023D-08
    -.398230873629D-09  .100000000000D+01  .193700000000D+04  .000000000000D+00
     .240000000000D+01  .000000000000D+00 -.204890966415D-07  .360000000000D+02
     .504006000000D+06  .400000000000D+01
 4 17  2 24 22  0  0.0 -.259705819190D-03  .341060513165D-12  .000000000000D+00
     .130000000000D+02  .963125000000D+02  .518093009225D-08  .138968040060D+01
     .514276325703D-05  .891894206870D-02  .105910003185D-04  .515373768044D+04
     .511200000000D+06 -.195577740669D-06 -.283936533839D+01  .100582838058D-06
     .982766954383D+00  .189500000000D+03  .874800925919D+00 -.783282626865D-08
     .102861427448D-09  .100000000000D+01  .193700000000D+04  .000000000000D+00
     .240000000000D+01  .630000000000D+02 -.195577740669D-07  .130000000000D+02
     .504006000000D+06  .400000000000D+01
 5 17  2 24 22  0  0.0 -.588721595705D-04  .204636307899D-11  .000000000000D+00
     .660000000000D+02 -.571875000000D+01  .456483300076D-08  .106164310700D+01
    -.163912773132D-06  .489324680530D-02  .118017196655D-04  .515369742966D+04
     .511200000000D+06 -.111758708954D-07  .261929454870D+00  .447034835815D-07
     .947154471026D+00  .145218750000D+03  .554117042708D+00 -.800890503161D-08
     .450375902821D-09  .100000000000D+01  .193700000000D+04  .000000000000D+00
     .240000000000D+01  .000000000000D+00 -.107102096081D-07  .660000000000D+02
     .504006000000D+06  .400000000000D+01
 6 17  2 24 22  0  0.0  .316892750561D-03  .500222085975D-11  .000000000000D+00
     .520000000000D+02 -.128843750000D+03  .434875257157D-08 -.158494575970D+01
    -.662915408611D-05  .694124726579D-03  .771693885326D-05  .515362818909D+04
     .511200000000D+06  .577419996262D-07 -.772647344549D+00  .242143869400D-07
     .966464919452D+00  .235437500000D+03 -.133874212705D+01 -.813462455405D-08
    -.376801409577D-09  .100000000000D+01  .193700000000D+04  .000000000000D+00
     .240000000000D+01  .000000000000D+00  .419095158577D-08  .520000000000D+02
     .504006000000D+06  .400000000000D+01
 7 17  2 24 22  0  0.0  .379270873964D-03 -.386535248253D-11  .000000000000D+00
     .430000000000D+02 -.267187500000D+02  .451018786743D-08 -.249233112312D+01
    -.157207250595D-05  .101644486422D-01  .102594494820D-04  .515360462379D+04
     .511200000000D+06  .875443220139D-07  .239347585587D+01 -.234693288803D-06
     .963207575816D+00  .183500000000D+03 -.261383980410D+01 -.786568478020D-08
    -.525379027002D-09  .100000000000D+01  .193700000000D+04  .000000000000D+00
     .240000000000D+01  .000000000000D+00 -.111758708954D-07  .430000000000D+02
     .504006000000D+06  .400000000000D+01
 8 17  2 24 22  0  0.0 -.507244840264D-04 -.136424205266D-11  .000000000000D+00
     .900000000000D+01  .232812500000D+02  .477555606394D-08  .904951345690D+00
     .103563070297D-05  .253400905058D-02  .138767063618D-05  .515358873177D+04
     .511200000000D+06  .298023223877D-07 -.182721848026D+01 -.800937414169D-07
     .965628459467D+00  .353437500000D+03 -.842497187287D+00 -.852714090393D-08
     .357157734196D-12  .100000000000D+01  .193700000000D+04  .000000000000D+00
     .240000000000D+01  .000000000000D+00  .465661287308D-08  .900000000000D+01
     .504006000000D+06  .400000000000D+01
